QIANFAN-25              
1 61558U 24185G   25252.20058384  .00000432  00000+0  25608-3 0  9993
2 61558  88.9738  88.8991 0006778 226.0732 133.9892 14.05782949 56222
QIANFAN-26              
1 61559U 24185H   25252.19051629  .00000236  00000+0  22378-3 0  9990
2 61559  88.9749  89.9662 0004127 312.7874  47.2945 13.77736654 55650
QIANFAN-27              
1 61560U 24185J   25252.24018240  .00000445  00000+0  17636-3 0  9993
2 61560  88.9743  88.0335 0006167 230.0725 129.9927 14.27157214 56683
QIANFAN-28              
1 61561U 24185K   25252.19477247  .00000769  00000+0  30604-3 0  9993
2 61561  88.9759  88.0351 0005255 230.0900 129.9833 14.27743444 56683
QIANFAN-29              
1 61562U 24185L   25252.23335428  .00000157  00000+0  22547-3 0  9991
2 61562  88.9727  91.0869 0009301 335.0692  25.0009 13.50963570 55035
QIANFAN-30              
1 61563U 24185M   25252.21080838  .00000166  00000+0  24250-3 0  9995
2 61563  88.9746  90.5783 0006334 321.2654  38.8042 13.49941429 55311
QIANFAN-31              
1 61564U 24185N   25252.21811598  .00000149  00000+0  18917-3 0  9995
2 61564  88.9731  90.5292 0005897 319.6001  40.4716 13.57913813 55335
QIANFAN-32              
1 61565U 24185P   25252.23167594  .00000140  00000+0  19931-3 0  9996
2 61565  88.9789  90.6818 0008893 346.6595  13.4320 13.50693957 55283
